start=new Date('2023-06-03T00:00:00.000Z').valueOf();
sats=[{"FILE":"3923570","GP_ID":"233071045","TLE_LINE1":"1 50828U 22001AB  23153.92066137 -.00000857  00000-0 -35771-4 0  9995","ECCENTRICITY":"0.00011710","LAUNCH_DATE":"2022-01-06","INCLINATION":"53.2184","EPOCH":"2023-06-02T22:05:45.142368","PERIOD":"95.438","MEAN_MOTION":"15.08837264","TIME_SYSTEM":"UTC","EPHEMERIS_TYPE":"0","MEAN_MOTION_DOT":"-0.00000857","OBJECT_NAME":"STARLINK-3290","REF_FRAME":"TEME","PERIAPSIS":"538.944","CLASSIFICATION_TYPE":"U","BSTAR":"-0.00003577100000","APOAPSIS":"540.564","TLE_LINE2":"2 50828  53.2184  26.5285 0001171  83.8895 276.2230 15.08837264 77669","ARG_OF_PERICENTER":"83.8895","RCS_SIZE":"LARGE","REV_AT_EPOCH":"7766","DECAY_DATE":null,"CENTER_NAME":"EARTH","SEMIMAJOR_AXIS":"6917.889","COUNTRY_CODE":"US","NORAD_CAT_ID":"50828","RA_OF_ASC_NODE":"26.5285","MEAN_ELEMENT_THEORY":"SGP4","SITE":"AFETR","OBJECT_ID":"2022-001AB","MEAN_MOTION_DDOT":"0.0000000000000","MEAN_ANOMALY":"276.2230","OBJECT_TYPE":"PAYLOAD","ELEMENT_SET_NO":"999"},{"ARG_OF_PERICENTER":"87.1912","APOAPSIS":"540.528","TLE_LINE2":"2 50829  53.2177  26.5436 0001128  87.1912 272.9209 15.08839365 77819","REV_AT_EPOCH":"7781","DECAY_DATE":null,"CENTER_NAME":"EARTH","SEMIMAJOR_AXIS":"6917.882","RCS_SIZE":"LARGE","MEAN_ELEMENT_THEORY":"SGP4","SITE":"AFETR","OBJECT_ID":"2022-001AC","COUNTRY_CODE":"US","NORAD_CAT_ID":"50829","RA_OF_ASC_NODE":"26.5436","OBJECT_TYPE":"PAYLOAD","ELEMENT_SET_NO":"999","MEAN_MOTION_DDOT":"0.0000000000000","MEAN_ANOMALY":"272.9209","GP_ID":"233069796","FILE":"3923570","TLE_LINE1":"1 50829U 22001AC  23153.94179404  .00000686  00000-0  61203-4 0  9997","ECCENTRICITY":"0.00011280","EPOCH":"2023-06-02T22:36:11.005056","PERIOD":"95.438","LAUNCH_DATE":"2022-01-06","INCLINATION":"53.2177","TIME_SYSTEM":"UTC","EPHEMERIS_TYPE":"0","OBJECT_NAME":"STARLINK-3294","MEAN_MOTION_DOT":"0.00000686","REF_FRAME":"TEME","MEAN_MOTION":"15.08839365","CLASSIFICATION_TYPE":"U","BSTAR":"0.00006120300000","PERIAPSIS":"538.967"},{"CLASSIFICATION_TYPE":"U","BSTAR":"-0.00011752000000","PERIAPSIS":"538.976","TIME_SYSTEM":"UTC","MEAN_MOTION_DOT":"-0.00002157","REF_FRAME":"TEME","OBJECT_NAME":"STARLINK-3278","EPHEMERIS_TYPE":"0","MEAN_MOTION":"15.08822326","PERIOD":"95.439","EPOCH":"2023-06-02T21:25:59.761920","LAUNCH_DATE":"2022-01-06","INCLINATION":"53.2176","GP_ID":"233070046","FILE":"3923570","ECCENTRICITY":"0.00011900","TLE_LINE1":"1 50830U 22001AD  23153.89305280 -.00002157  00000-0 -11752-3 0  9996","ELEMENT_SET_NO":"999","OBJECT_TYPE":"PAYLOAD","MEAN_MOTION_DDOT":"0.0000000000000","MEAN_ANOMALY":"267.8618","MEAN_ELEMENT_THEORY":"SGP4","OBJECT_ID":"2022-001AD","SITE":"AFETR","COUNTRY_CODE":"US","RA_OF_ASC_NODE":"36.7653","NORAD_CAT_ID":"50830","REV_AT_EPOCH":"7767","SEMIMAJOR_AXIS":"6917.934","DECAY_DATE":null,"CENTER_NAME":"EARTH","RCS_SIZE":"LARGE","ARG_OF_PERICENTER":"92.2511","TLE_LINE2":"2 50830  53.2176  36.7653 0001190  92.2511 267.8618 15.08822326 77675","APOAPSIS":"540.623"},{"COUNTRY_CODE":"US","NORAD_CAT_ID":"50831","RA_OF_ASC_NODE":"26.7747","MEAN_ELEMENT_THEORY":"SGP4","SITE":"AFETR","OBJECT_ID":"2022-001AE","MEAN_MOTION_DDOT":"0.0000000000000","MEAN_ANOMALY":"259.8756","OBJECT_TYPE":"PAYLOAD","ELEMENT_SET_NO":"999","APOAPSIS":"540.512","TLE_LINE2":"2 50831  53.2167  26.7747 0001095 100.2360 259.8756 15.08837069 77815","ARG_OF_PERICENTER":"100.2360","RCS_SIZE":"LARGE","REV_AT_EPOCH":"7781","CENTER_NAME":"EARTH","DECAY_DATE":null,"SEMIMAJOR_AXIS":"6917.889","MEAN_MOTION":"15.08837069","TIME_SYSTEM":"UTC","EPHEMERIS_TYPE":"0","REF_FRAME":"TEME","OBJECT_NAME":"STARLINK-3299","MEAN_MOTION_DOT":"0.00001455","PERIAPSIS":"538.997","CLASSIFICATION_TYPE":"U","BSTAR":"0.00010949000000","GP_ID":"233071298","FILE":"3923570","TLE_LINE1":"1 50831U 22001AE  23153.90500550  .00001455  00000-0  10949-3 0  9991","ECCENTRICITY":"0.00010950","LAUNCH_DATE":"2022-01-06","INCLINATION":"53.2167","EPOCH":"2023-06-02T21:43:12.475200","PERIOD":"95.438"},{"BSTAR":"0.00004309700000","CLASSIFICATION_TYPE":"U","PERIAPSIS":"538.830","REF_FRAME":"TEME","OBJECT_NAME":"STARLINK-3328","MEAN_MOTION_DOT":"0.00000398","EPHEMERIS_TYPE":"0","TIME_SYSTEM":"UTC","MEAN_MOTION":"15.08835008","PERIOD":"95.438","EPOCH":"2023-06-02T21:20:40.321248","INCLINATION":"53.2186","LAUNCH_DATE":"2022-01-06","ECCENTRICITY":"0.00013450","TLE_LINE1":"1 50832U 22001AF  23153.88935557  .00000398  00000-0  43097-4 0  9994","GP_ID":"233071546","FILE":"3923570","ELEMENT_SET_NO":"999","OBJECT_TYPE":"PAYLOAD","MEAN_ANOMALY":"253.3921","MEAN_MOTION_DDOT":"0.0000000000000","OBJECT_ID":"2022-001AF","SITE":"AFETR","MEAN_ELEMENT_THEORY":"SGP4","RA_OF_ASC_NODE":"36.7753","NORAD_CAT_ID":"50832","COUNTRY_CODE":"US","SEMIMAJOR_AXIS":"6917.896","CENTER_NAME":"EARTH","DECAY_DATE":null,"REV_AT_EPOCH":"7767","RCS_SIZE":"LARGE","ARG_OF_PERICENTER":"106.7219","TLE_LINE2":"2 50832  53.2186  36.7753 0001345 106.7219 253.3921 15.08835008 77675","APOAPSIS":"540.691"},{"PERIAPSIS":"513.424","CLASSIFICATION_TYPE":"U","BSTAR":"-0.00038194000000","MEAN_MOTION":"15.17393828","TIME_SYSTEM":"UTC","OBJECT_NAME":"STARLINK-3316","REF_FRAME":"TEME","MEAN_MOTION_DOT":"-0.00008029","EPHEMERIS_TYPE":"0","LAUNCH_DATE":"2022-01-06","INCLINATION":"53.2197","PERIOD":"94.900","EPOCH":"2023-06-02T21:54:19.762272","FILE":"3923570","GP_ID":"233070297","ECCENTRICITY":"0.00004340","TLE_LINE1":"1 50833U 22001AG  23153.91272873 -.00008029  00000-0 -38194-3 0  9996","MEAN_MOTION_DDOT":"0.0000000000000","MEAN_ANOMALY":"234.4165","ELEMENT_SET_NO":"999","OBJECT_TYPE":"PAYLOAD","COUNTRY_CODE":"US","RA_OF_ASC_NODE":"21.2102","NORAD_CAT_ID":"50833","MEAN_ELEMENT_THEORY":"SGP4","OBJECT_ID":"2022-001AG","SITE":"AFETR","RCS_SIZE":"LARGE","REV_AT_EPOCH":"7789","SEMIMAJOR_AXIS":"6891.858","CENTER_NAME":"EARTH","DECAY_DATE":null,"TLE_LINE2":"2 50833  53.2197  21.2102 0000434 125.6871 234.4165 15.17393828 77890","APOAPSIS":"514.022","ARG_OF_PERICENTER":"125.6871"},{"CENTER_NAME":"EARTH","DECAY_DATE":null,"SEMIMAJOR_AXIS":"6917.887","REV_AT_EPOCH":"7766","RCS_SIZE":"LARGE","ARG_OF_PERICENTER":"94.8808","APOAPSIS":"540.499","TLE_LINE2":"2 50834  53.2171  36.8287 0001080  94.8808 265.2308 15.08837980 77662","OBJECT_TYPE":"PAYLOAD","ELEMENT_SET_NO":"999","MEAN_ANOMALY":"265.2308","MEAN_MOTION_DDOT":"0.0000000000000","SITE":"AFETR","OBJECT_ID":"2022-001AH","MEAN_ELEMENT_THEORY":"SGP4","NORAD_CAT_ID":"50834","RA_OF_ASC_NODE":"36.8287","COUNTRY_CODE":"US","EPOCH":"2023-06-02T21:04:46.708032","PERIOD":"95.438","INCLINATION":"53.2171","LAUNCH_DATE":"2022-01-06","TLE_LINE1":"1 50834U 22001AH  23153.87831838  .00000606  00000-0  56155-4 0  9993","ECCENTRICITY":"0.00010800","FILE":"3923570","GP_ID":"233070547","BSTAR":"0.00005615500000","CLASSIFICATION_TYPE":"U","PERIAPSIS":"539.004","EPHEMERIS_TYPE":"0","OBJECT_NAME":"STARLINK-3331","REF_FRAME":"TEME","MEAN_MOTION_DOT":"0.00000606","TIME_SYSTEM":"UTC","MEAN_MOTION":"15.08837980"},{"COUNTRY_CODE":"US","RA_OF_ASC_NODE":"36.5665","NORAD_CAT_ID":"50835","MEAN_ELEMENT_THEORY":"SGP4","OBJECT_ID":"2022-001AJ","SITE":"AFETR","MEAN_MOTION_DDOT":"0.0000000000000","MEAN_ANOMALY":"257.8380","ELEMENT_SET_NO":"999","OBJECT_TYPE":"PAYLOAD","TLE_LINE2":"2 50835  53.2182  36.5665 0001157 102.2742 257.8380 15.08839913 77674","APOAPSIS":"540.546","ARG_OF_PERICENTER":"102.2742","RCS_SIZE":"LARGE","REV_AT_EPOCH":"7767","SEMIMAJOR_AXIS":"6917.881","DECAY_DATE":null,"CENTER_NAME":"EARTH","MEAN_MOTION":"15.08839913","TIME_SYSTEM":"UTC","REF_FRAME":"TEME","MEAN_MOTION_DOT":"-0.00000385","OBJECT_NAME":"STARLINK-3310","EPHEMERIS_TYPE":"0","PERIAPSIS":"538.945","CLASSIFICATION_TYPE":"U","BSTAR":"-0.00000610010000","FILE":"3923570","GP_ID":"233070798","ECCENTRICITY":"0.00011570","TLE_LINE1":"1 50835U 22001AJ  23153.93815416 -.00000385  00000-0 -61001-5 0  9998","LAUNCH_DATE":"2022-01-06","INCLINATION":"53.2182","PERIOD":"95.438","EPOCH":"2023-06-02T22:30:56.519424"},{"PERIAPSIS":"538.805","CLASSIFICATION_TYPE":"U","BSTAR":"0.00010847000000","MEAN_MOTION":"15.08840960","TIME_SYSTEM":"UTC","REF_FRAME":"TEME","MEAN_MOTION_DOT":"0.00001439","OBJECT_NAME":"STARLINK-3330","EPHEMERIS_TYPE":"0","LAUNCH_DATE":"2022-01-06","INCLINATION":"53.2179","PERIOD":"95.437","EPOCH":"2023-06-02T21:10:04.476000","FILE":"3923570","GP_ID":"233071046","ECCENTRICITY":"0.00013550","TLE_LINE1":"1 50836U 22001AK  23153.88199625  .00001439  00000-0  10847-3 0  9999","MEAN_MOTION_DDOT":"0.0000000000000","MEAN_ANOMALY":"273.0709","ELEMENT_SET_NO":"999","OBJECT_TYPE":"PAYLOAD","COUNTRY_CODE":"US","RA_OF_ASC_NODE":"36.8107","NORAD_CAT_ID":"50836","MEAN_ELEMENT_THEORY":"SGP4","OBJECT_ID":"2022-001AK","SITE":"AFETR","RCS_SIZE":"LARGE","REV_AT_EPOCH":"7756","SEMIMAJOR_AXIS":"6917.877","CENTER_NAME":"EARTH","DECAY_DATE":null,"TLE_LINE2":"2 50836  53.2179  36.8107 0001355  87.0439 273.0709 15.08840960 77565","APOAPSIS":"540.680","ARG_OF_PERICENTER":"87.0439"},{"ECCENTRICITY":"0.00007320","TLE_LINE1":"1 50837U 22001AL  23153.90867402  .00000215  00000-0  31573-4 0  9999","GP_ID":"233069797","FILE":"3923570","INCLINATION":"53.2172","LAUNCH_DATE":"2022-01-06","PERIOD":"95.438","EPOCH":"2023-06-02T21:48:29.435328","MEAN_MOTION":"15.08832133","REF_FRAME":"TEME","MEAN_MOTION_DOT":"0.00000215","OBJECT_NAME":"STARLINK-3318","EPHEMERIS_TYPE":"0","TIME_SYSTEM":"UTC","PERIAPSIS":"539.263","BSTAR":"0.00003157300000","CLASSIFICATION_TYPE":"U","TLE_LINE2":"2 50837  53.2172  26.6906 0000732  95.7772 264.3304 15.08832133 77812","APOAPSIS":"540.276","ARG_OF_PERICENTER":"95.7772","RCS_SIZE":"LARGE","SEMIMAJOR_AXIS":"6917.904","DECAY_DATE":null,"CENTER_NAME":"EARTH","REV_AT_EPOCH":"7781","RA_OF_ASC_NODE":"26.6906","NORAD_CAT_ID":"50837","COUNTRY_CODE":"US","OBJECT_ID":"2022-001AL","SITE":"AFETR","MEAN_ELEMENT_THEORY":"SGP4","MEAN_ANOMALY":"264.3304","MEAN_MOTION_DDOT":"0.0000000000000","ELEMENT_SET_NO":"999","OBJECT_TYPE":"PAYLOAD"}];
